NORAD_CAT_ID,OBJECT_NAME,OBJECT_TYPE,EPOCH,MEAN_MOTION,ECCENTRICITY,INCLINATION,RA_OF_ASC_NODE,ARG_OF_PERICENTER,MEAN_ANOMALY,BSTAR,MEAN_MOTION_DOT,MEAN_MOTION_DDOT,TLE_LINE0,TLE_LINE1,TLE_LINE2,SEMIMAJOR_AXIS,PERIOD,APOGEE,PERIGEE,DECAYED
53160.0,STARLINK-4096,PAYLOAD,2023-08-06 08:20:53,15.08833288,0.0001198,53.2162,92.4146,76.259,283.8535,-6.7234e-05,-1.357e-05,0.0,0 STARLINK-4096,1 53160U 22083AE  23218.34784608 -.00001357  00000-0 -67234-4 0  9990,2 53160  53.2162  92.4146 0001198  76.2590 283.8535 15.08833288 59127,6917.901,95.438,540.595,538.937,0.0
53160.0,STARLINK-4096,PAYLOAD,2023-08-08 00:05:32,15.08849695,9.54e-05,53.2164,84.9823,98.1991,261.9109,0.00021164,3.083e-05,0.0,0 STARLINK-4096,1 53160U 22083AE  23220.00384760  .00003083  00000-0  21164-3 0  9998,2 53160  53.2164  84.9823 0000954  98.1991 261.9109 15.08849695 59374,6917.851,95.437,540.376,539.056,0.0
53160.0,STARLINK-4096,PAYLOAD,2023-08-09 07:53:15,15.08849782,0.0001377,53.2153,79.0336,79.5192,280.5955,0.00014303,1.99e-05,0.0,0 STARLINK-4096,1 53160U 22083AE  23221.32864665  .00001990  00000-0  14303-3 0  9993,2 53160  53.2153  79.0336 0001377  79.5192 280.5955 15.08849782 59577,6917.85,95.437,540.668,538.763,0.0
53160.0,STARLINK-4096,PAYLOAD,2023-08-09 23:47:06,15.0884535,8.05e-05,53.2161,76.0602,80.3259,279.7824,0.00023626,3.475e-05,0.0,0 STARLINK-4096,1 53160U 22083AE  23221.99104622  .00003475  00000-0  23626-3 0  9994,2 53160  53.2161  76.0602 0000805  80.3259 279.7824 15.08845350 59671,6917.864,95.437,540.286,539.172,0.0
53160.0,STARLINK-4096,PAYLOAD,2023-08-10 14:05:34,15.0884007,8.88e-05,53.2158,73.3844,78.0842,282.025,0.00010893,1.446e-05,0.0,0 STARLINK-4096,1 53160U 22083AE  23222.58720951  .00001446  00000-0  10893-3 0  9997,2 53160  53.2158  73.3844 0000888  78.0842 282.0250 15.08840070 59762,6917.88,95.438,540.359,539.131,0.0
53160.0,STARLINK-4096,PAYLOAD,2023-08-11 18:42:31,15.08842038,9.47e-05,53.2166,68.031,84.4328,275.6772,0.00017491,2.497e-05,0.0,0 STARLINK-4096,1 53160U 22083AE  23223.77952978  .00002497  00000-0  17491-3 0  9993,2 53160  53.2166  68.0310 0000947  84.4328 275.6772 15.08842038 59949,6917.874,95.437,540.394,539.084,0.0
53160.0,STARLINK-4096,PAYLOAD,2023-08-12 20:08:41,15.08845307,9.87e-05,53.2169,63.2727,90.6681,269.4424,0.00011906,1.608e-05,0.0,0 STARLINK-4096,1 53160U 22083AE  23224.83936731  .00001608  00000-0  11906-3 0  9998,2 53160  53.2169  63.2727 0000987  90.6681 269.4424 15.08845307 60103,6917.864,95.437,540.412,539.046,0.0
53160.0,STARLINK-4096,PAYLOAD,2023-08-13 19:59:28,15.0883622,8.88e-05,53.2175,58.8141,86.6083,273.5011,3.0396e-05,1.96e-06,0.0,0 STARLINK-4096,1 53160U 22083AE  23225.83297403  .00000196  00000-0  30396-4 0  9991,2 53160  53.2175  58.8141 0000888  86.6083 273.5011 15.08836220 60259,6917.892,95.438,540.371,539.143,0.0
53160.0,STARLINK-4096,PAYLOAD,2023-08-14 21:25:38,15.08843842,9.42e-05,53.2174,54.056,91.6462,268.4638,8.1764e-05,1.014e-05,0.0,0 STARLINK-4096,1 53160U 22083AE  23226.89280946  .00001014  00000-0  81764-4 0  9997,2 53160  53.2174  54.0560 0000942  91.6462 268.4638 15.08843842 60413,6917.869,95.437,540.385,539.082,0.0
53160.0,STARLINK-4096,PAYLOAD,2023-08-15 11:44:07,15.08840976,0.0001002,53.2179,51.38,85.6579,274.4528,-4.7982e-06,-3.64e-06,0.0,0 STARLINK-4096,1 53160U 22083AE  23227.48897376 -.00000364  00000-0 -47982-5 0  9998,2 53160  53.2179  51.3800 0001002  85.6579 274.4528 15.08840976 60505,6917.877,95.437,540.436,539.049,0.0
53160.0,STARLINK-4096,PAYLOAD,2023-08-16 05:13:22,15.08835644,9.63e-05,53.2168,48.109,82.3141,277.796,6.8423e-05,8.01e-06,0.0,0 STARLINK-4096,1 53160U 22083AE  23228.21761812  .00000801  00000-0  68423-4 0  9991,2 53160  53.2168  48.1090 0000963  82.3141 277.7960 15.08835644 60616,6917.894,95.438,540.425,539.093,0.0
53160.0,STARLINK-4096,PAYLOAD,2023-08-17 11:25:41,15.08842286,0.000104,53.217,42.4593,78.241,281.8699,8.8563e-05,1.122e-05,0.0,0 STARLINK-4096,1 53160U 22083AE  23229.47617357  .00001122  00000-0  88563-4 0  9998,2 53160  53.2170  42.4593 0001040  78.2410 281.8699 15.08842286 60800,6917.873,95.437,540.458,539.019,0.0
53160.0,STARLINK-4096,PAYLOAD,2023-08-18 17:38:01,15.08839286,0.0001052,53.2171,36.8079,93.2062,266.9051,6.4319e-05,7.36e-06,0.0,0 STARLINK-4096,1 53160U 22083AE  23230.73473603  .00000736  00000-0  64319-4 0  9996,2 53160  53.2171  36.8079 0001052  93.2062 266.9051 15.08839286 60992,6917.883,95.438,540.475,539.02,0.0
53160.0,STARLINK-4096,PAYLOAD,2023-08-20 15:44:12,15.08831731,8.31e-05,53.2178,28.1846,102.4937,257.6148,0.00014906,2.085e-05,0.0,0 STARLINK-4096,1 53160U 22083AE  23232.65569965  .00002085  00000-0  14906-3 0  9991,2 53160  53.2178  28.1846 0000831 102.4937 257.6148 15.08831731 61287,6917.906,95.438,540.346,539.196,0.0
53160.0,STARLINK-4096,PAYLOAD,2023-08-20 20:30:21,15.08841013,8.63e-05,53.2182,27.2915,102.8436,257.2652,7.4402e-05,8.97e-06,0.0,0 STARLINK-4096,1 53160U 22083AE  23232.85441550  .00000897  00000-0  74402-4 0  9999,2 53160  53.2182  27.2915 0000863 102.8436 257.2652 15.08841013 61316,6917.877,95.437,540.339,539.145,0.0
53160.0,STARLINK-4096,PAYLOAD,2023-08-21 10:48:50,15.08831573,8.74e-05,53.2177,24.615,110.7893,249.3193,3.5121e-05,2.71e-06,0.0,0 STARLINK-4096,1 53160U 22083AE  23233.45058551  .00000271  00000-0  35121-4 0  9992,2 53160  53.2177  24.6150 0000874 110.7893 249.3193 15.08831573 61401,6917.906,95.438,540.376,539.167,0.0
53160.0,STARLINK-4096,PAYLOAD,2023-08-21 17:10:22,15.08839323,8.55e-05,53.2179,23.4274,82.3749,277.734,9.5028e-05,1.225e-05,0.0,0 STARLINK-4096,1 53160U 22083AE  23233.71553926  .00001225  00000-0  95028-4 0  9999,2 53160  53.2179  23.4274 0000855  82.3749 277.7340 15.08839323 61444,6917.882,95.438,540.339,539.156,0.0
53160.0,STARLINK-4096,PAYLOAD,2023-08-22 10:39:38,15.08833166,0.0001224,53.2184,20.1559,97.9411,262.172,-1.4648e-05,-5.21e-06,0.0,0 STARLINK-4096,1 53160U 22083AE  23234.44419009 -.00000521  00000-0 -14648-4 0  9992,2 53160  53.2184  20.1559 0001224  97.9411 262.1720 15.08833166 61550,6917.901,95.438,540.613,538.92,0.0
53160.0,STARLINK-4096,PAYLOAD,2023-08-24 11:56:34,15.08844314,0.0001701,53.2186,10.9367,123.3032,236.8123,6.5203e-05,7.5e-06,0.0,0 STARLINK-4096,1 53160U 22083AE  23236.49762255  .00000750  00000-0  65203-4 0  9998,2 53160  53.2186  10.9367 0001701 123.3032 236.8123 15.08844314 61865,6917.867,95.437,540.909,538.555,0.0
53160.0,STARLINK-4096,PAYLOAD,2023-08-25 13:22:44,15.08843763,0.0001031,53.22,6.1774,83.7199,276.3911,8.0084e-05,9.87e-06,0.0,0 STARLINK-4096,1 53160U 22083AE  23237.55746281  .00000987  00000-0  80084-4 0  9993,2 53160  53.2200   6.1774 0001031  83.7199 276.3911 15.08843763 61399,6917.869,95.437,540.447,539.021,0.0
53160.0,STARLINK-4096,PAYLOAD,2023-08-25 18:08:53,15.08848087,0.0001335,53.2201,5.2854,66.4504,293.6628,0.00010961,1.457e-05,0.0,0 STARLINK-4096,1 53160U 22083AE  23237.75618025  .00001457  00000-0  10961-3 0  9998,2 53160  53.2201   5.2854 0001335  66.4504 293.6628 15.08848087 62059,6917.856,95.437,540.644,538.797,0.0
53160.0,STARLINK-4096,PAYLOAD,2023-08-26 11:38:09,15.08816857,0.000133,53.2191,2.0137,117.6265,242.4862,0.00032277,4.85e-05,0.0,0 STARLINK-4096,1 53160U 22083AE  23238.48483016  .00004850  00000-0  32277-3 0  9993,2 53160  53.2191   2.0137 0001330 117.6265 242.4862 15.08816857 61538,6917.951,95.439,540.736,538.896,0.0
53160.0,STARLINK-4096,PAYLOAD,2023-08-27 08:18:09,15.08834,9.48e-05,53.218,358.1541,80.146,279.9639,8.5289e-05,1.07e-05,0.0,0 STARLINK-4096,1 53160U 22083AE  23239.34594840  .00001070  00000-0  85289-4 0  9990,2 53160  53.2180 358.1541 0000948  80.1460 279.9639 15.08834000 62296,6917.899,95.438,540.42,539.108,0.0
53160.0,STARLINK-4096,PAYLOAD,2023-08-27 14:39:42,15.08844371,0.0001057,53.2181,356.9628,94.8406,265.2707,6.0701e-05,6.79e-06,0.0,0 STARLINK-4096,1 53160U 22083AE  23239.61090309  .00000679  00000-0  60701-4 0  9997,2 53160  53.2181 356.9628 0001057  94.8406 265.2707 15.08844371 62334,6917.867,95.437,540.463,539.001,0.0
53160.0,STARLINK-4096,PAYLOAD,2023-08-28 14:30:29,15.08839273,0.0001047,53.218,352.5031,91.9937,268.1175,7.7692e-05,9.49e-06,0.0,0 STARLINK-4096,1 53160U 22083AE  23240.60450785  .00000949  00000-0  77692-4 0  9993,2 53160  53.2180 352.5031 0001047  91.9937 268.1175 15.08839273 62481,6917.883,95.438,540.472,539.023,0.0
53160.0,STARLINK-4096,PAYLOAD,2023-08-29 14:21:15,15.08846961,0.0001037,53.218,348.0428,94.4015,265.7096,0.0001761,2.516e-05,0.0,0 STARLINK-4096,1 53160U 22083AE  23241.59810148  .00002516  00000-0  17610-3 0  9990,2 53160  53.2180 348.0428 0001037  94.4015 265.7096 15.08846961 62000,6917.859,95.437,540.441,539.007,0.0
53160.0,STARLINK-4096,PAYLOAD,2023-08-30 09:25:54,15.08832543,9.61e-05,53.2184,344.474,86.4039,273.7063,-1.5976e-05,-5.42e-06,0.0,0 STARLINK-4096,1 53160U 22083AE  23242.39299542 -.00000542  00000-0 -15976-4 0  9991,2 53160  53.2184 344.4740 0000961  86.4039 273.7063 15.08832543 62759,6917.903,95.438,540.433,539.103,0.0
53160.0,STARLINK-4096,PAYLOAD,2023-08-30 12:36:40,15.08838525,0.0001148,53.2174,343.8778,103.7189,256.3931,2.4316e-05,9.9e-07,0.0,0 STARLINK-4096,1 53160U 22083AE  23242.52547093  .00000099  00000-0  24316-4 0  9996,2 53160  53.2174 343.8778 0001148 103.7189 256.3931 15.08838525 62778,6917.885,95.438,540.544,538.956,0.0
53160.0,STARLINK-4096,PAYLOAD,2023-08-31 09:16:41,15.08840443,0.0001144,53.2178,340.0135,76.8159,283.2961,1.3565e-05,-7.2e-07,0.0,0 STARLINK-4096,1 53160U 22083AE  23243.38659264 -.00000072  00000-0  13565-4 0  9991,2 53160  53.2178 340.0135 0001144  76.8159 283.2961 15.08840443 62270,6917.879,95.438,540.535,538.953,0.0
53160.0,STARLINK-4096,PAYLOAD,2023-09-01 09:07:28,15.08836353,0.000133,53.2174,335.5546,71.0661,289.0476,0.00019873,2.876e-05,0.0,0 STARLINK-4096,1 53160U 22083AE  23244.38019230  .00002876  00000-0  19873-3 0  9995,2 53160  53.2174 335.5546 0001330  71.0661 289.0476 15.08836353 63050,6917.892,95.438,540.677,538.836,0.0
